[{"OBJECT_NAME":"STARLINK-31854","OBJECT_ID":"2024-084T","EPOCH":"2026-03-09T04:34:19.577568","MEAN_MOTION":15.2757581,"ECCENTRICITY":0.00010041,"INCLINATION":43.0013,"RA_OF_ASC_NODE":11.5905,"ARG_OF_PERICENTER":261.0154,"MEAN_ANOMALY":99.0584,"EPHEMERIS_TYPE":0,"CLASSIFICATION_TYPE":"U","NORAD_CAT_ID":59671,"ELEMENT_SET_NO":999,"REV_AT_EPOCH":10465,"BSTAR":-4.7181657e-5,"MEAN_MOTION_DOT":-1.56e-5,"MEAN_MOTION_DDOT":0},{"OBJECT_NAME":"CZ-6A DEB","OBJECT_ID":"2022-151ME","EPOCH":"2026-03-09T17:07:50.636064","MEAN_MOTION":15.20556855,"ECCENTRICITY":0.00283971,"INCLINATION":98.6182,"RA_OF_ASC_NODE":149.2426,"ARG_OF_PERICENTER":178.5587,"MEAN_ANOMALY":181.5732,"EPHEMERIS_TYPE":0,"CLASSIFICATION_TYPE":"U","NORAD_CAT_ID":54578,"ELEMENT_SET_NO":999,"REV_AT_EPOCH":10518,"BSTAR":0.0077423675,"MEAN_MOTION_DOT":0.00175116,"MEAN_MOTION_DDOT":0}]
